QIANFAN-49              
1 62250U 24232P   25303.80871286  .00000193  00000+0  27976-3 0  9997
2 62250  89.0040  45.5574 0012675 323.7543  36.2748 13.50984314 62046
QIANFAN-50              
1 62251U 24232Q   25303.75933713  .00000195  00000+0  28424-3 0  9997
2 62251  89.0045  45.5682 0014349 324.8521  35.1682 13.50984859 62061
QIANFAN-51              
1 62252U 24232R   25303.74292330  .00000182  00000+0  26356-3 0  9998
2 62252  89.0039  45.5664 0011944 329.9600  30.0865 13.50981527 62052
QIANFAN-52              
1 62253U 24232S   25303.77165206  .00000202  00000+0  29399-3 0  9996
2 62253  89.0038  45.4385 0013845 321.2465  38.7692 13.50970826 62140
QIANFAN-53              
1 62254U 24232T   25303.75121397  .00000177  00000+0  25529-3 0  9990
2 62254  89.0043  45.5421 0012688 322.1480  37.8778 13.50979706 62107
QIANFAN-54              
1 62255U 24232U   25303.79230606  .00000192  00000+0  27848-3 0  9992
2 62255  89.0034  45.2202 0002345  48.2038 311.9313 13.50981965 93617
QIANFAN-55              
1 62785U 25016A   25303.74446166  .00000071  00000+0  91124-4 0  9991
2 62785  88.9745 107.6487 0018940 111.1365 249.1812 13.50969244 41380
QIANFAN-56              
1 62786U 25016B   25303.76083219  .00000064  00000+0  79969-4 0  9995
2 62786  88.9718 107.4951 0017570 113.1704 247.1300 13.50977661 41430
